CCSDS_OMM_VERS = 2.0
CREATION_DATE  = 
ORIGINATOR     = 

OBJECT_NAME    = IDEFIX & ARIANE 42P R/B
OBJECT_ID      = 2002-021B
CENTER_NAME    = EARTH
REF_FRAME      = TEME
TIME_SYSTEM    = UTC
MEAN_ELEMENT_THEORY = SGP/SGP4

EPOCH          = 2025-12-12T20:42:37.999584
MEAN_MOTION    = 14.30950591
ECCENTRICITY   = .00129493
INCLINATION    = 98.5786
RA_OF_ASC_NODE = 281.5522
ARG_OF_PERICENTER = 83.3218
MEAN_ANOMALY   = 276.9438

EPHEMERIS_TYPE = 0
CLASSIFICATION_TYPE = U
NORAD_CAT_ID   = 27422
ELEMENT_SET_NO = 999
REV_AT_EPOCH   = 23160
BSTAR          = .21009182E-3
MEAN_MOTION_DOT = .509E-5
MEAN_MOTION_DDOT = 0

CCSDS_OMM_VERS = 2.0
CREATION_DATE  = 
ORIGINATOR     = 

OBJECT_NAME    = AQUA
OBJECT_ID      = 2002-022A
CENTER_NAME    = EARTH
REF_FRAME      = TEME
TIME_SYSTEM    = UTC
MEAN_ELEMENT_THEORY = SGP/SGP4

EPOCH          = 2025-12-13T00:49:03.357696
MEAN_MOTION    = 14.61810917
ECCENTRICITY   = .0001135
INCLINATION    = 98.4037
RA_OF_ASC_NODE = 307.9179
ARG_OF_PERICENTER = 115.4509
MEAN_ANOMALY   = 318.2019

EPHEMERIS_TYPE = 0
CLASSIFICATION_TYPE = U
NORAD_CAT_ID   = 27424
ELEMENT_SET_NO = 999
REV_AT_EPOCH   = 25607
BSTAR          = .38558975E-3
MEAN_MOTION_DOT = .1876E-4
MEAN_MOTION_DDOT = 0

CCSDS_OMM_VERS = 2.0
CREATION_DATE  = 
ORIGINATOR     = 

OBJECT_NAME    = CZ-4B R/B
OBJECT_ID      = 2002-024C
CENTER_NAME    = EARTH
REF_FRAME      = TEME
TIME_SYSTEM    = UTC
MEAN_ELEMENT_THEORY = SGP/SGP4

EPOCH          = 2025-12-13T00:00:14.863392
MEAN_MOTION    = 14.14527828
ECCENTRICITY   = .00491707
INCLINATION    = 98.8999
RA_OF_ASC_NODE = 35.7709
ARG_OF_PERICENTER = 269.1566
MEAN_ANOMALY   = 156.6799

EPHEMERIS_TYPE = 0
CLASSIFICATION_TYPE = U
NORAD_CAT_ID   = 27432
ELEMENT_SET_NO = 999
REV_AT_EPOCH   = 21698
BSTAR          = .67621766E-4
MEAN_MOTION_DOT = .86E-6
MEAN_MOTION_DDOT = 0

CCSDS_OMM_VERS = 2.0
CREATION_DATE  = 
ORIGINATOR     = 

OBJECT_NAME    = MIDORI II (ADEOS-II)
OBJECT_ID      = 2002-056A
CENTER_NAME    = EARTH
REF_FRAME      = TEME
TIME_SYSTEM    = UTC
MEAN_ELEMENT_THEORY = SGP/SGP4

EPOCH          = 2025-12-12T22:12:37.749888
MEAN_MOTION    = 14.29205958
ECCENTRICITY   = .00001892
INCLINATION    = 98.7636
RA_OF_ASC_NODE = 299.8826
ARG_OF_PERICENTER = 154.4021
MEAN_ANOMALY   = 205.7170

EPHEMERIS_TYPE = 0
CLASSIFICATION_TYPE = U
NORAD_CAT_ID   = 27597
ELEMENT_SET_NO = 999
REV_AT_EPOCH   = 19790
BSTAR          = .19411568E-3
MEAN_MOTION_DOT = .448E-5
MEAN_MOTION_DDOT = 0

CCSDS_OMM_VERS = 2.0
CREATION_DATE  = 
ORIGINATOR     = 

OBJECT_NAME    = H-2A R/B
OBJECT_ID      = 2002-056E
CENTER_NAME    = EARTH
REF_FRAME      = TEME
TIME_SYSTEM    = UTC
MEAN_ELEMENT_THEORY = SGP/SGP4

EPOCH          = 2025-12-12T22:56:36.163968
MEAN_MOTION    = 14.33676481
ECCENTRICITY   = .00713749
INCLINATION    = 98.3065
RA_OF_ASC_NODE = 305.7040
ARG_OF_PERICENTER = 60.5030
MEAN_ANOMALY   = 340.7478

EPHEMERIS_TYPE = 0
CLASSIFICATION_TYPE = U
NORAD_CAT_ID   = 27601
ELEMENT_SET_NO = 999
REV_AT_EPOCH   = 20168
BSTAR          = .2175912E-3
MEAN_MOTION_DOT = .58E-5
MEAN_MOTION_DDOT = 0

CCSDS_OMM_VERS = 2.0
CREATION_DATE  = 
ORIGINATOR     = 

OBJECT_NAME    = CZ-4B R/B
OBJECT_ID      = 2003-049C
CENTER_NAME    = EARTH
REF_FRAME      = TEME
TIME_SYSTEM    = UTC
MEAN_ELEMENT_THEORY = SGP/SGP4

EPOCH          = 2025-12-12T22:32:51.981792
MEAN_MOTION    = 14.54909708
ECCENTRICITY   = .0049005
INCLINATION    = 98.6789
RA_OF_ASC_NODE = 333.5109
ARG_OF_PERICENTER = 135.4954
MEAN_ANOMALY   = 225.0194

EPHEMERIS_TYPE = 0
CLASSIFICATION_TYPE = U
NORAD_CAT_ID   = 28059
ELEMENT_SET_NO = 999
REV_AT_EPOCH   = 17398
BSTAR          = .15595306E-3
MEAN_MOTION_DOT = .63E-5
MEAN_MOTION_DDOT = 0

CCSDS_OMM_VERS = 2.0
CREATION_DATE  = 
ORIGINATOR     = 

OBJECT_NAME    = CZ-2C R/B
OBJECT_ID      = 2004-012C
CENTER_NAME    = EARTH
REF_FRAME      = TEME
TIME_SYSTEM    = UTC
MEAN_ELEMENT_THEORY = SGP/SGP4

EPOCH          = 2025-12-12T23:55:24.618144
MEAN_MOTION    = 15.55549680
ECCENTRICITY   = .00165022
INCLINATION    = 97.7426
RA_OF_ASC_NODE = 39.6387
ARG_OF_PERICENTER = 269.2958
MEAN_ANOMALY   = 90.6405

EPHEMERIS_TYPE = 0
CLASSIFICATION_TYPE = U
NORAD_CAT_ID   = 28222
ELEMENT_SET_NO = 999
REV_AT_EPOCH   = 19076
BSTAR          = .73848719E-3
MEAN_MOTION_DOT = .50952E-3
MEAN_MOTION_DDOT = 0

CCSDS_OMM_VERS = 2.0
CREATION_DATE  = 
ORIGINATOR     = 

OBJECT_NAME    = SL-16 R/B
OBJECT_ID      = 2004-021B
CENTER_NAME    = EARTH
REF_FRAME      = TEME
TIME_SYSTEM    = UTC
MEAN_ELEMENT_THEORY = SGP/SGP4

EPOCH          = 2025-12-12T21:42:17.815104
MEAN_MOTION    = 14.14580585
ECCENTRICITY   = .00052767
INCLINATION    = 71.0016
RA_OF_ASC_NODE = 54.6200
ARG_OF_PERICENTER = 200.1767
MEAN_ANOMALY   = 159.9147

EPHEMERIS_TYPE = 0
CLASSIFICATION_TYPE = U
NORAD_CAT_ID   = 28353
ELEMENT_SET_NO = 999
REV_AT_EPOCH   = 11056
BSTAR          = -.9253049E-4
MEAN_MOTION_DOT = -.225E-5
MEAN_MOTION_DDOT = 0

CCSDS_OMM_VERS = 2.0
CREATION_DATE  = 
ORIGINATOR     = 

OBJECT_NAME    = CZ-4B R/B
OBJECT_ID      = 2004-035C
CENTER_NAME    = EARTH
REF_FRAME      = TEME
TIME_SYSTEM    = UTC
MEAN_ELEMENT_THEORY = SGP/SGP4

EPOCH          = 2025-12-13T00:28:46.407648
MEAN_MOTION    = 15.27378492
ECCENTRICITY   = .00315345
INCLINATION    = 97.3616
RA_OF_ASC_NODE = 17.3601
ARG_OF_PERICENTER = 276.4585
MEAN_ANOMALY   = 83.3064

EPHEMERIS_TYPE = 0
CLASSIFICATION_TYPE = U
NORAD_CAT_ID   = 28415
ELEMENT_SET_NO = 999
REV_AT_EPOCH   = 16667
BSTAR          = .44631526E-3
MEAN_MOTION_DOT = .1207E-3
MEAN_MOTION_DDOT = 0

CCSDS_OMM_VERS = 2.0
CREATION_DATE  = 
ORIGINATOR     = 

OBJECT_NAME    = CZ-2C R/B
OBJECT_ID      = 2004-046B
CENTER_NAME    = EARTH
REF_FRAME      = TEME
TIME_SYSTEM    = UTC
MEAN_ELEMENT_THEORY = SGP/SGP4

EPOCH          = 2025-12-12T21:19:55.800192
MEAN_MOTION    = 14.26941073
ECCENTRICITY   = .01404751
INCLINATION    = 98.1990
RA_OF_ASC_NODE = 262.2574
ARG_OF_PERICENTER = 51.8669
MEAN_ANOMALY   = 309.5078

EPHEMERIS_TYPE = 0
CLASSIFICATION_TYPE = U
NORAD_CAT_ID   = 28480
ELEMENT_SET_NO = 999
REV_AT_EPOCH   = 9612
BSTAR          = .1431337E-3
MEAN_MOTION_DOT = .346E-5
MEAN_MOTION_DDOT = 0

CCSDS_OMM_VERS = 2.0
CREATION_DATE  = 
ORIGINATOR     = 

OBJECT_NAME    = ARIANE 5 R/B
OBJECT_ID      = 2004-049H
CENTER_NAME    = EARTH
REF_FRAME      = TEME
TIME_SYSTEM    = UTC
MEAN_ELEMENT_THEORY = SGP/SGP4

EPOCH          = 2025-12-12T23:44:49.843392
MEAN_MOTION    = 14.85012871
ECCENTRICITY   = .00833231
INCLINATION    = 98.2521
RA_OF_ASC_NODE = 147.2796
ARG_OF_PERICENTER = 272.1478
MEAN_ANOMALY   = 87.0196

EPHEMERIS_TYPE = 0
CLASSIFICATION_TYPE = U
NORAD_CAT_ID   = 28499
ELEMENT_SET_NO = 999
REV_AT_EPOCH   = 13292
BSTAR          = .19337082E-3
MEAN_MOTION_DOT = .1689E-4
MEAN_MOTION_DDOT = 0

CCSDS_OMM_VERS = 2.0
CREATION_DATE  = 
ORIGINATOR     = 

OBJECT_NAME    = CZ-2D R/B
OBJECT_ID      = 2005-024B
CENTER_NAME    = EARTH
REF_FRAME      = TEME
TIME_SYSTEM    = UTC
MEAN_ELEMENT_THEORY = SGP/SGP4

EPOCH          = 2025-12-12T23:30:42.286176
MEAN_MOTION    = 15.53207641
ECCENTRICITY   = .0005495
INCLINATION    = 97.3643
RA_OF_ASC_NODE = 354.4325
ARG_OF_PERICENTER = 5.0180
MEAN_ANOMALY   = 355.1128

EPHEMERIS_TYPE = 0
CLASSIFICATION_TYPE = U
NORAD_CAT_ID   = 28738
ELEMENT_SET_NO = 999
REV_AT_EPOCH   = 12629
BSTAR          = .60334381E-3
MEAN_MOTION_DOT = .37949E-3
MEAN_MOTION_DDOT = 0

