IDEFIX & ARIANE 42P R/B 
1 27422U 02021B   25346.86293981  .00000509  00000+0  21009-3 0  9996
2 27422  98.5786 281.5522 0012949  83.3218 276.9438 14.30950591231605
AQUA                    
1 27424U 02022A   25347.03406664  .00001876  00000+0  38559-3 0  9999
2 27424  98.4037 307.9179 0001135 115.4509 318.2019 14.61810917256075
CZ-4B R/B               
1 27432U 02024C   25347.00017203  .00000086  00000+0  67622-4 0  9990
2 27432  98.8999  35.7709 0049170 269.1566 156.6799 14.14527828216980
MIDORI II (ADEOS-II)    
1 27597U 02056A   25346.92543692  .00000448  00000+0  19412-3 0  9998
2 27597  98.7636 299.8826 0000189 154.4021 205.7170 14.29205958197903
H-2A R/B                
1 27601U 02056E   25346.95597412  .00000580  00000+0  21759-3 0  9990
2 27601  98.3065 305.7040 0071374  60.5030 340.7478 14.33676481201687
CZ-4B R/B               
1 28059U 03049C   25346.93949053  .00000630  00000+0  15595-3 0  9998
2 28059  98.6789 333.5109 0049005 135.4954 225.0194 14.54909708173984
CZ-2C R/B               
1 28222U 04012C   25346.99681271  .00050952  00000+0  73849-3 0  9990
2 28222  97.7426  39.6387 0016502 269.2958  90.6405 15.55549680190769
SL-16 R/B               
1 28353U 04021B   25346.90437286 -.00000225  00000+0 -92530-4 0  9990
2 28353  71.0016  54.6200 0005276 200.1767 159.9147 14.14580585110568
CZ-4B R/B               
1 28415U 04035C   25347.01998157  .00012070  00000+0  44632-3 0  9994
2 28415  97.3616  17.3601 0031534 276.4585  83.3064 15.27378492166673
CZ-2C R/B               
1 28480U 04046B   25346.88884028  .00000346  00000+0  14313-3 0  9999
2 28480  98.1990 262.2574 0140475  51.8669 309.5078 14.26941073 96121
ARIANE 5 R/B            
1 28499U 04049H   25346.98946578  .00001689  00000+0  19337-3 0  9994
2 28499  98.2521 147.2796 0083323 272.1478  87.0196 14.85012871132922
CZ-2D R/B               
1 28738U 05024B   25346.97965609  .00037949  00000+0  60334-3 0  9990
2 28738  97.3643 354.4325 0005495   5.0180 355.1128 15.53207641126294
